{"type": "FeatureCollection", "features": [ {"type": "Feature", "properties": {"norad_id": 30196, "name": "FENGYUN 1C DEB", "group": "fengyun-1c-debris", "lat": -53.496885956800995, "lon": -106.59418891146164, "alt_km": 874.1688948843585, "timestamp": "2025-12-18T21:31:51.276232+00:00", "meta": {"OBJECT_NAME": "FENGYUN 1C DEB", "OBJECT_ID": "1999-025VD", "EPOCH": "2025-12-18T05:31:50.620800", "MEAN_MOTION": 14.25849303, "ECCENTRICITY": 0.00867573, "INCLINATION": 98.6401, "RA_OF_ASC_NODE": 84.605, "ARG_OF_PERICENTER": 47.3286, "MEAN_ANOMALY": 7.0147, "EPHEMERIS_TYPE": 0, "CLASSIFICATION_TYPE": "U", "NORAD_CAT_ID": 30196, "ELEMENT_SET_NO": 999, "REV_AT_EPOCH": 98443, "BSTAR": 4.3908113e-05, "MEAN_MOTION_DOT": 6.5e-07, "MEAN_MOTION_DDOT": 0}, "tle": {"line1": "1 30196U 99025VD  25352.23044700  .00000065  00000+0  43908-4 0  9999", "line2": "2 30196  98.6401  84.6050 0086757  47.3286   7.0147 14.25849303984431"}}, "geometry": {"type": "Point", "coordinates": [-106.59418891146164, -53.496885956800995]}}, {"type": "Feature", "properties": {"norad_id": 30197, "name": "FENGYUN 1C DEB", "group": "fengyun-1c-debris", "lat": -28.51416861918371, "lon": -76.60163231207294, "alt_km": 802.2438634875298, "timestamp": "2025-12-18T21:31:51.276242+00:00", "meta": {"OBJECT_NAME": "FENGYUN 1C DEB", "OBJECT_ID": "1999-025VE", "EPOCH": "2025-12-18T07:11:02.418720", "MEAN_MOTION": 14.37216882, "ECCENTRICITY": 0.0057092, "INCLINATION": 98.9392, "RA_OF_ASC_NODE": 277.8721, "ARG_OF_PERICENTER": 197.9601, "MEAN_ANOMALY": 281.6012, "EPHEMERIS_TYPE": 0, "CLASSIFICATION_TYPE": "U", "NORAD_CAT_ID": 30197, "ELEMENT_SET_NO": 999, "REV_AT_EPOCH": 98566, "BSTAR": 0.00057430441, "MEAN_MOTION_DOT": 1.695e-05, "MEAN_MOTION_DDOT": 0}, "tle": {"line1": "1 30197U 99025VE  25352.29933355  .00001695  00000+0  57430-3 0  9993", "line2": "2 30197  98.9392 277.8721 0057092 197.9601 281.6012 14.37216882985668"}}, "geometry": {"type": "Point", "coordinates": [-76.60163231207294, -28.51416861918371]}}, {"type": "Feature", "properties": {"norad_id": 30198, "name": "FENGYUN 1C DEB", "group": "fengyun-1c-debris", "lat": -35.91433795192854, "lon": -62.21860734271904, "alt_km": 669.2530916957257, "timestamp": "2025-12-18T21:31:51.276253+00:00", "meta": {"OBJECT_NAME": "FENGYUN 1C DEB", "OBJECT_ID": "1999-025VF", "EPOCH": "2025-12-18T03:08:58.111296", "MEAN_MOTION": 14.50436652, "ECCENTRICITY": 0.0106942, "INCLINATION": 98.4479, "RA_OF_ASC_NODE": 123.1922, "ARG_OF_PERICENTER": 181.9483, "MEAN_ANOMALY": 356.7505, "EPHEMERIS_TYPE": 0, "CLASSIFICATION_TYPE": "U", "NORAD_CAT_ID": 30198, "ELEMENT_SET_NO": 999, "REV_AT_EPOCH": 98585, "BSTAR": 0.0015056201, "MEAN_MOTION_DOT": 6.289e-05, "MEAN_MOTION_DDOT": 0}, "tle": {"line1": "1 30198U 99025VF  25352.13122814  .00006289  00000+0  15056-2 0  9998", "line2": "2 30198  98.4479 123.1922 0106942 181.9483 356.7505 14.50436652985852"}}, "geometry": {"type": "Point", "coordinates": [-62.21860734271904, -35.91433795192854]}}, {"type": "Feature", "properties": {"norad_id": 30199, "name": "FENGYUN 1C DEB", "group": "fengyun-1c-debris", "lat": -29.031327340838583, "lon": 21.18104671535728, "alt_km": 726.9148096010649, "timestamp": "2025-12-18T21:31:51.276263+00:00", "meta": {"OBJECT_NAME": "FENGYUN 1C DEB", "OBJECT_ID": "1999-025VG", "EPOCH": "2025-12-18T01:57:14.980032", "MEAN_MOTION": 14.3854537, "ECCENTRICITY": 0.00776912, "INCLINATION": 98.3848, "RA_OF_ASC_NODE": 15.6887, "ARG_OF_PERICENTER": 292.4527, "MEAN_ANOMALY": 135.835, "EPHEMERIS_TYPE": 0, "CLASSIFICATION_TYPE": "U", "NORAD_CAT_ID": 30199, "ELEMENT_SET_NO": 999, "REV_AT_EPOCH": 98487, "BSTAR": 0.00075885141, "MEAN_MOTION_DOT": 2.359e-05, "MEAN_MOTION_DDOT": 0}, "tle": {"line1": "1 30199U 99025VG  25352.08142338  .00002359  00000+0  75885-3 0  9997", "line2": "2 30199  98.3848  15.6887 0077691 292.4527 135.8350 14.38545370984871"}}, "geometry": {"type": "Point", "coordinates": [21.18104671535728, -29.031327340838583]}}, {"type": "Feature", "properties": {"norad_id": 30200, "name": "FENGYUN 1C DEB", "group": "fengyun-1c-debris", "lat": -56.34004334344515, "lon": -158.19257244576534, "alt_km": 904.3407132395041, "timestamp": "2025-12-18T21:31:51.276273+00:00", "meta": {"OBJECT_NAME": "FENGYUN 1C DEB", "OBJECT_ID": "1999-025VH", "EPOCH": "2025-12-17T23:51:15.899328", "MEAN_MOTION": 14.22280332, "ECCENTRICITY": 0.0147589, "INCLINATION": 99.1126, "RA_OF_ASC_NODE": 186.9268, "ARG_OF_PERICENTER": 84.3413, "MEAN_ANOMALY": 277.4573, "EPHEMERIS_TYPE": 0, "CLASSIFICATION_TYPE": "U", "NORAD_CAT_ID": 30200, "ELEMENT_SET_NO": 999, "REV_AT_EPOCH": 98057, "BSTAR": 0.00011927738, "MEAN_MOTION_DOT": 2.49e-06, "MEAN_MOTION_DDOT": 0}, "tle": {"line1": "1 30200U 99025VH  25351.99393402  .00000249  00000+0  11928-3 0  9993", "line2": "2 30200  99.1126 186.9268 0147589  84.3413 277.4573 14.22280332980573"}}, "geometry": {"type": "Point", "coordinates": [-158.19257244576534, -56.34004334344515]}}, {"type": "Feature", "properties": {"norad_id": 30201, "name": "FENGYUN 1C DEB", "group": "fengyun-1c-debris", "lat": -48.12596263701131, "lon": -63.126347364182585, "alt_km": 813.7270311806842, "timestamp": "2025-12-18T21:31:51.276284+00:00", "meta": {"OBJECT_NAME": "FENGYUN 1C DEB", "OBJECT_ID": "1999-025VJ", "EPOCH": "2025-12-17T15:46:00.995808", "MEAN_MOTION": 14.22951632, "ECCENTRICITY": 0.00287153, "INCLINATION": 99.4013, "RA_OF_ASC_NODE": 126.2014, "ARG_OF_PERICENTER": 298.5108, "MEAN_ANOMALY": 61.3177, "EPHEMERIS_TYPE": 0, "CLASSIFICATION_TYPE": "U", "NORAD_CAT_ID": 30201, "ELEMENT_SET_NO": 999, "REV_AT_EPOCH": 97897, "BSTAR": 0.00037912948, "MEAN_MOTION_DOT": 8.06e-06, "MEAN_MOTION_DDOT": 0}, "tle": {"line1": "1 30201U 99025VJ  25351.65695597  .00000806  00000+0  37913-3 0  9998", "line2": "2 30201  99.4013 126.2014 0028715 298.5108  61.3177 14.22951632978976"}}, "geometry": {"type": "Point", "coordinates": [-63.126347364182585, -48.12596263701131]}}, {"type": "Feature", "properties": {"norad_id": 30202, "name": "FENGYUN 1C DEB", "group": "fengyun-1c-debris", "lat": 38.41857328243635, "lon": -82.70621876040953, "alt_km": 719.8949211246181, "timestamp": "2025-12-18T21:31:51.276294+00:00", "meta": {"OBJECT_NAME": "FENGYUN 1C DEB", "OBJECT_ID": "1999-025VK", "EPOCH": "2025-12-18T06:00:26.855712", "MEAN_MOTION": 14.52461645, "ECCENTRICITY": 0.00384888, "INCLINATION": 98.6408, "RA_OF_ASC_NODE": 89.7011, "ARG_OF_PERICENTER": 41.7702, "MEAN_ANOMALY": 318.642, "EPHEMERIS_TYPE": 0, "CLASSIFICATION_TYPE": "U", "NORAD_CAT_ID": 30202, "ELEMENT_SET_NO": 999, "REV_AT_EPOCH": 98369, "BSTAR": 0.0017493017, "MEAN_MOTION_DOT": 7.163e-05, "MEAN_MOTION_DDOT": 0}, "tle": {"line1": "1 30202U 99025VK  25352.25031083  .00007163  00000+0  17493-2 0  9993", "line2": "2 30202  98.6408  89.7011 0038488  41.7702 318.6420 14.52461645983699"}}, "geometry": {"type": "Point", "coordinates": [-82.70621876040953, 38.41857328243635]}}, {"type": "Feature", "properties": {"norad_id": 30205, "name": "FENGYUN 1C DEB", "group": "fengyun-1c-debris", "lat": -29.20255668902951, "lon": -81.07049092358649, "alt_km": 879.4938525987009, "timestamp": "2025-12-18T21:31:51.276305+00:00", "meta": {"OBJECT_NAME": "FENGYUN 1C DEB", "OBJECT_ID": "1999-025VN", "EPOCH": "2025-12-18T06:51:14.874048", "MEAN_MOTION": 13.88046478, "ECCENTRICITY": 0.01212176, "INCLINATION": 98.9968, "RA_OF_ASC_NODE": 103.4202, "ARG_OF_PERICENTER": 164.8238, "MEAN_ANOMALY": 229.5228, "EPHEMERIS_TYPE": 0, "CLASSIFICATION_TYPE": "U", "NORAD_CAT_ID": 30205, "ELEMENT_SET_NO": 999, "REV_AT_EPOCH": 95715, "BSTAR": 0.00026721635, "MEAN_MOTION_DOT": 2.96e-06, "MEAN_MOTION_DDOT": 0}, "tle": {"line1": "1 30205U 99025VN  25352.28558882  .00000296  00000+0  26722-3 0  9996", "line2": "2 30205  98.9968 103.4202 0121217 164.8238 229.5228 13.88046478957155"}}, "geometry": {"type": "Point", "coordinates": [-81.07049092358649, -29.20255668902951]}}, {"type": "Feature", "properties": {"norad_id": 30206, "name": "FENGYUN 1C DEB", "group": "fengyun-1c-debris", "lat": 49.99963120852653, "lon": -17.921833237070377, "alt_km": 636.6828361575344, "timestamp": "2025-12-18T21:31:51.276315+00:00", "meta": {"OBJECT_NAME": "FENGYUN 1C DEB", "OBJECT_ID": "1999-025VP", "EPOCH": "2025-12-17T23:45:44.600256", "MEAN_MOTION": 14.49175735, "ECCENTRICITY": 0.01457006, "INCLINATION": 98.2311, "RA_OF_ASC_NODE": 351.1265, "ARG_OF_PERICENTER": 20.3326, "MEAN_ANOMALY": 340.3588, "EPHEMERIS_TYPE": 0, "CLASSIFICATION_TYPE": "U", "NORAD_CAT_ID": 30206, "ELEMENT_SET_NO": 999, "REV_AT_EPOCH": 99477, "BSTAR": 0.00040164725, "MEAN_MOTION_DOT": 1.7e-05, "MEAN_MOTION_DDOT": 0}, "tle": {"line1": "1 30206U 99025VP  25351.99009954  .00001700  00000+0  40165-3 0  9993", "line2": "2 30206  98.2311 351.1265 0145700  20.3326 340.3588 14.49175735994776"}}, "geometry": {"type": "Point", "coordinates": [-17.921833237070377, 49.99963120852653]}}, {"type": "Feature", "properties": {"norad_id": 30207, "name": "FENGYUN 1C DEB", "group": "fengyun-1c-debris", "lat": -81.36210136115027, "lon": -173.69857856056709, "alt_km": 1117.1990650349144, "timestamp": "2025-12-18T21:31:51.276325+00:00", "meta": {"OBJECT_NAME": "FENGYUN 1C DEB", "OBJECT_ID": "1999-025VQ", "EPOCH": "2025-12-18T06:24:11.356704", "MEAN_MOTION": 13.79140209, "ECCENTRICITY": 0.02606533, "INCLINATION": 98.5742, "RA_OF_ASC_NODE": 102.4535, "ARG_OF_PERICENTER": 133.4517, "MEAN_ANOMALY": 247.7898, "EPHEMERIS_TYPE": 0, "CLASSIFICATION_TYPE": "U", "NORAD_CAT_ID": 30207, "ELEMENT_SET_NO": 999, "REV_AT_EPOCH": 95139, "BSTAR": 0.0001765429, "MEAN_MOTION_DOT": 1.97e-06, "MEAN_MOTION_DDOT": 0}, "tle": {"line1": "1 30207U 99025VQ  25352.26679811  .00000197  00000+0  17654-3 0  9996", "line2": "2 30207  98.5742 102.4535 0260653 133.4517 247.7898 13.79140209951393"}}, "geometry": {"type": "Point", "coordinates": [-173.69857856056709, -81.36210136115027]}}]}